OBJECT_NAME,OBJECT_ID,EPOCH,MEAN_MOTION,ECCENTRICITY,INCLINATION,RA_OF_ASC_NODE,ARG_OF_PERICENTER,MEAN_ANOMALY,EPHEMERIS_TYPE,CLASSIFICATION_TYPE,NORAD_CAT_ID,ELEMENT_SET_NO,REV_AT_EPOCH,BSTAR,MEAN_MOTION_DOT,MEAN_MOTION_DDOT
STARLINK-37662,2026-110P,2026-06-10T14:00:01.999872,15.49154361,.00018905,97.2845,357.9612,65.8282,107.2185,0,U,69137,999,459,.35274358E-3,.19118E-3,0
STARLINK-37658,2026-110Q,2026-06-10T14:00:01.999872,15.49220902,.00008167,97.2846,357.8871,120.7471,235.5778,0,U,69138,999,459,.45040949E-3,.24509E-3,0
STARLINK-37659,2026-110R,2026-06-10T14:00:01.999872,15.49184078,.00014622,97.2853,357.8686,85.4720,228.0651,0,U,69139,999,459,.25807149E-3,.13968E-3,0
STARLINK-37653,2026-110S,2026-06-10T14:00:01.999872,15.49184643,.00012539,97.2854,357.8630,82.8904,216.9022,0,U,69140,999,459,.27128197E-3,.14689E-3,0
STARLINK-37654,2026-110T,2026-06-10T14:00:01.999872,15.49172366,.00016771,97.2844,357.9662,89.8700,92.7359,0,U,69141,999,459,.47673021E-3,.25908E-3,0
STARLINK-37655,2026-110U,2026-06-10T14:00:01.999872,15.55271514,.00018746,97.2846,358.0080,96.2722,185.8009,0,U,69142,999,459,-.42259747E-1,-.2486185E-1,0
STARLINK-37636,2026-110V,2026-06-10T14:00:01.999872,15.58698283,.00015487,97.2841,358.0738,70.8753,357.3853,0,U,69143,999,459,-.37516421E-1,-.2506513E-1,0
STARLINK-37638,2026-110W,2026-06-10T14:00:01.999872,15.59074557,.0001687,97.2839,358.0787,63.4054,16.3105,0,U,69144,999,459,-.3761167E-1,-.2543522E-1,0
STARLINK-37657,2026-110X,2026-06-10T14:00:01.999872,15.49150868,.00020268,97.2846,357.9628,78.7074,102.6473,0,U,69145,999,464,.50112113E-3,.27223E-3,0
STARLINK-37639,2026-110Y,2026-06-10T14:00:01.999872,15.59777900,.00017257,97.2841,358.0859,64.6368,30.5575,0,U,69146,999,464,-.3595453E-1,-.2503898E-1,0
STARLINK-37661,2026-110Z,2026-06-10T14:00:01.999872,15.49207395,.00018015,97.2849,357.9158,60.3897,1.4271,0,U,69147,999,464,.68594451E-3,.37418E-3,0
STARLINK-37395,2026-111A,2026-06-10T13:39:32.804352,15.80940260,.00010058,53.1583,184.8288,144.5384,215.5706,0,U,69148,999,321,-.98266058E-4,-.20109E-3,0
STARLINK-37346,2026-111B,2026-06-10T14:00:01.999872,15.74031769,.00008441,53.1586,184.7928,77.6903,345.8101,0,U,69149,999,448,-.20139489E-1,-.2558015E-1,0
STARLINK-37332,2026-111C,2026-06-10T14:00:01.999872,15.65407602,.00007828,53.1591,184.8879,66.1850,310.6383,0,U,69150,999,448,-.28343484E-1,-.2512188E-1,0
STARLINK-37297,2026-111D,2026-06-10T13:37:46.163424,15.80926467,.0001054,53.1585,184.8207,104.0159,256.0981,0,U,69151,999,321,.81504051E-3,.16365E-2,0
STARLINK-37317,2026-111E,2026-06-10T13:34:56.565408,15.80938720,.00012423,53.1581,184.8076,77.2779,282.8383,0,U,69152,999,321,.91667686E-3,.184703E-2,0
STARLINK-37374,2026-111F,2026-06-10T14:00:01.999872,15.60520349,.00008925,53.1598,184.9795,83.1641,248.5992,0,U,69153,999,448,-.33551659E-1,-.2458312E-1,0
STARLINK-37235,2026-111G,2026-06-10T14:00:01.999872,15.56005016,.00012614,53.1598,185.1789,59.7762,173.6180,0,U,69154,999,448,-.18401318E-1,-.1172903E-1,0
STARLINK-37329,2026-111H,2026-06-10T13:35:35.711520,15.80922475,.00011715,53.1581,184.8089,91.9811,268.1346,0,U,69155,999,321,.88721772E-3,.178481E-2,0
STARLINK-37345,2026-111J,2026-06-10T14:00:01.999872,15.80798010,.00009591,53.1578,184.7091,75.3221,29.6858,0,U,69156,999,448,.71193721E-3,.141649E-2,0
STARLINK-37353,2026-111K,2026-06-10T09:00:30.262464,15.78929417,.00078245,53.1585,185.7509,78.3551,281.8348,0,U,69157,999,318,-.10096173E-1,-.1600667E-1,0
STARLINK-37363,2026-111L,2026-06-10T10:27:40.823424,15.81653244,.00135651,53.1582,185.4156,271.0492,88.8977,0,U,69158,999,319,.11608471E-2,.245053E-2,0
STARLINK-37343,2026-111M,2026-06-10T14:00:01.999872,15.60526937,.00007987,53.1597,184.9803,62.5306,268.3448,0,U,69159,999,448,-.33636022E-1,-.2464144E-1,0
STARLINK-37328,2026-111N,2026-06-10T14:00:01.999872,15.80804547,.0001217,53.1579,184.6804,72.1024,46.6691,0,U,69160,999,448,.66342337E-3,.131838E-2,0
STARLINK-37311,2026-111P,2026-06-10T13:38:39.674400,15.78097569,.00007578,53.1586,184.8227,160.0435,200.0617,0,U,69161,999,321,.6076294E-3,.106358E-2,0
STARLINK-36286,2026-111Q,2026-06-10T14:00:01.999872,15.78028213,.00011343,53.1581,184.7403,79.9339,9.4379,0,U,69162,999,448,.17705752E-3,.30145E-3,0
STARLINK-37196,2026-111R,2026-06-10T13:41:21.331392,15.78087027,.00010954,53.1589,184.8349,81.1536,278.9610,0,U,69163,999,321,.66090444E-3,.115816E-2,0
STARLINK-36288,2026-111S,2026-06-10T13:40:12.087840,15.78085437,.00012625,53.1588,184.8280,86.2651,273.8514,0,U,69164,999,321,.92058936E-3,.162467E-2,0
STARLINK-37445,2026-111T,2026-06-10T13:35:39.952032,15.78102739,.00011916,53.1587,184.8086,93.1970,266.9188,0,U,69165,999,321,.9056497E-3,.159895E-2,0
STARLINK-37491,2026-111U,2026-06-10T14:00:01.999872,15.78009967,.00011107,53.1583,184.7526,75.1026,7.8496,0,U,69166,999,448,.32853265E-3,.56637E-3,0
