STARLINK-37662          
1 69137U 26110P   26161.58335648  .00019118  00000+0  35274-3 0  9997
2 69137  97.2845 357.9612 0001890  65.8282 107.2185 15.49154361  4596
STARLINK-37658          
1 69138U 26110Q   26161.58335648  .00024509  00000+0  45041-3 0  9991
2 69138  97.2846 357.8871 0000816 120.7471 235.5778 15.49220902  4590
STARLINK-37659          
1 69139U 26110R   26161.58335648  .00013968  00000+0  25807-3 0  9997
2 69139  97.2853 357.8686 0001462  85.4720 228.0651 15.49184078  4595
STARLINK-37653          
1 69140U 26110S   26161.58335648  .00014689  00000+0  27128-3 0  9998
2 69140  97.2854 357.8630 0001253  82.8904 216.9022 15.49184643  4596
STARLINK-37654          
1 69141U 26110T   26161.58335648  .00025908  00000+0  47673-3 0  9992
2 69141  97.2844 357.9662 0001677  89.8700  92.7359 15.49172366  4595
STARLINK-37655          
1 69142U 26110U   26161.58335648 -.02486185  00000+0 -42260-1 0  9990
2 69142  97.2846 358.0080 0001874  96.2722 185.8009 15.55271514  4597
STARLINK-37636          
1 69143U 26110V   26161.58335648 -.02506513  00000+0 -37516-1 0  9997
2 69143  97.2841 358.0738 0001548  70.8753 357.3853 15.58698283  4595
STARLINK-37638          
1 69144U 26110W   26161.58335648 -.02543522  00000+0 -37612-1 0  9996
2 69144  97.2839 358.0787 0001687  63.4054  16.3105 15.59074557  4598
STARLINK-37657          
1 69145U 26110X   26161.58335648  .00027223  00000+0  50112-3 0  9990
2 69145  97.2846 357.9628 0002026  78.7074 102.6473 15.49150868  4640
STARLINK-37639          
1 69146U 26110Y   26161.58335648 -.02503898  00000+0 -35955-1 0  9998
2 69146  97.2841 358.0859 0001725  64.6368  30.5575 15.59777900  4644
STARLINK-37661          
1 69147U 26110Z   26161.58335648  .00037418  00000+0  68594-3 0  9992
2 69147  97.2849 357.9158 0001801  60.3897   1.4271 15.49207395  4643
STARLINK-37395          
1 69148U 26111A   26161.56912968 -.00020109  00000+0 -98266-4 0  9999
2 69148  53.1583 184.8288 0001005 144.5384 215.5706 15.80940260  3216
STARLINK-37346          
1 69149U 26111B   26161.58335648 -.02558015  00000+0 -20139-1 0  9991
2 69149  53.1586 184.7928 0000844  77.6903 345.8101 15.74031769  4487
STARLINK-37332          
1 69150U 26111C   26161.58335648 -.02512188  00000+0 -28343-1 0  9999
2 69150  53.1591 184.8879 0000782  66.1850 310.6383 15.65407602  4481
STARLINK-37297          
1 69151U 26111D   26161.56789541  .00163650  00000+0  81504-3 0  9995
2 69151  53.1585 184.8207 0001054 104.0159 256.0981 15.80926467  3216
STARLINK-37317          
1 69152U 26111E   26161.56593247  .00184703  00000+0  91668-3 0  9996
2 69152  53.1581 184.8076 0001242  77.2779 282.8383 15.80938720  3213
STARLINK-37374          
1 69153U 26111F   26161.58335648 -.02458312  00000+0 -33552-1 0  9998
2 69153  53.1598 184.9795 0000892  83.1641 248.5992 15.60520349  4482
STARLINK-37235          
1 69154U 26111G   26161.58335648 -.01172903  00000+0 -18401-1 0  9993
2 69154  53.1598 185.1789 0001261  59.7762 173.6180 15.56005016  4484
STARLINK-37329          
1 69155U 26111H   26161.56638555  .00178481  00000+0  88722-3 0  9994
2 69155  53.1581 184.8089 0001171  91.9811 268.1346 15.80922475  3217
STARLINK-37345          
1 69156U 26111J   26161.58335648  .00141649  00000+0  71194-3 0  9995
2 69156  53.1578 184.7091 0000959  75.3221  29.6858 15.80798010  4484
STARLINK-37353          
1 69157U 26111K   26161.37535026 -.01600667  00000+0 -10096-1 0  9990
2 69157  53.1585 185.7509 0007824  78.3551 281.8348 15.78929417  3181
STARLINK-37363          
1 69158U 26111L   26161.43588916  .00245053  00000+0  11608-2 0  9996
2 69158  53.1582 185.4156 0013565 271.0492  88.8977 15.81653244  3199
STARLINK-37343          
1 69159U 26111M   26161.58335648 -.02464144  00000+0 -33636-1 0  9997
2 69159  53.1597 184.9803 0000798  62.5306 268.3448 15.60526937  4486
STARLINK-37328          
1 69160U 26111N   26161.58335648  .00131838  00000+0  66342-3 0  9998
2 69160  53.1579 184.6804 0001217  72.1024  46.6691 15.80804547  4482
STARLINK-37311          
1 69161U 26111P   26161.56851475  .00106358  00000+0  60763-3 0  9998
2 69161  53.1586 184.8227 0000757 160.0435 200.0617 15.78097569  3212
STARLINK-36286          
1 69162U 26111Q   26161.58335648  .00030145  00000+0  17706-3 0  9999
2 69162  53.1581 184.7403 0001134  79.9339   9.4379 15.78028213  4480
STARLINK-37196          
1 69163U 26111R   26161.57038578  .00115816  00000+0  66090-3 0  9990
2 69163  53.1589 184.8349 0001095  81.1536 278.9610 15.78087027  3218
STARLINK-36288          
1 69164U 26111S   26161.56958435  .00162467  00000+0  92059-3 0  9991
2 69164  53.1588 184.8280 0001262  86.2651 273.8514 15.78085437  3212
STARLINK-37445          
1 69165U 26111T   26161.56643463  .00159895  00000+0  90565-3 0  9995
2 69165  53.1587 184.8086 0001191  93.1970 266.9188 15.78102739  3213
STARLINK-37491          
1 69166U 26111U   26161.58335648  .00056637  00000+0  32853-3 0  9997
2 69166  53.1583 184.7526 0001110  75.1026   7.8496 15.78009967  4484
